{
  "type": "FeatureCollection",
  "features": [
    {
      "type": "Feature",
      "properties": {
        "norad_id": 41556,
        "name": "ZIYUAN 3-2 (ZY 3-2)",
        "group": "resource",
        "lat": 81.8552852661305,
        "lon": -2.8640124319647278,
        "alt_km": 501.713494812072,
        "timestamp": "2025-12-14T07:33:19.135271+00:00",
        "meta_object_name": "ZIYUAN 3-2 (ZY 3-2)",
        "meta_object_id": "2016-033A",
        "meta_epoch": "2025-12-13T16:58:11.774208",
        "meta_mean_motion": 15.21522618,
        "meta_eccentricity": 0.00125822,
        "meta_inclination": 97.4043,
        "meta_ra_of_asc_node": 61.8584,
        "meta_arg_of_pericenter": 245.3621,
        "meta_mean_anomaly": 114.6305,
        "meta_ephemeris_type": 0,
        "meta_classification_type": "U",
        "meta_norad_cat_id": 41556,
        "meta_element_set_no": 999,
        "meta_rev_at_epoch": 52978,
        "meta_bstar": 0.00040663339,
        "meta_mean_motion_dot": 9.109e-05,
        "meta_mean_motion_ddot": 0,
        "tle_line1": "1 41556U 16033A   25347.70708072  .00009109  00000+0  40663-3 0  9996",
        "tle_line2": "2 41556  97.4043  61.8584 0012582 245.3621 114.6305 15.21522618529787"
      },
      "geometry": {
        "type": "Point",
        "coordinates": [
          -2.8640124319647278,
          81.8552852661305
        ]
      }
    },
    {
      "type": "Feature",
      "properties": {
        "norad_id": 41599,
        "name": "CARTOSAT-2C",
        "group": "resource",
        "lat": 17.748910956062268,
        "lon": 43.14046963411323,
        "alt_km": 502.82601225957023,
        "timestamp": "2025-12-14T07:33:19.135282+00:00",
        "meta_object_name": "CARTOSAT-2C",
        "meta_object_id": "2016-040A",
        "meta_epoch": "2025-12-13T15:40:12.842688",
        "meta_mean_motion": 15.19313234,
        "meta_eccentricity": 0.00107719,
        "meta_inclination": 97.4763,
        "meta_ra_of_asc_node": 44.8944,
        "meta_arg_of_pericenter": 61.8213,
        "meta_mean_anomaly": 298.4108,
        "meta_ephemeris_type": 0,
        "meta_classification_type": "U",
        "meta_norad_cat_id": 41599,
        "meta_element_set_no": 999,
        "meta_rev_at_epoch": 52554,
        "meta_bstar": 0.00045614098,
        "meta_mean_motion_dot": 9.582e-05,
        "meta_mean_motion_ddot": 0,
        "tle_line1": "1 41599U 16040A   25347.65292642  .00009582  00000+0  45614-3 0  9992",
        "tle_line2": "2 41599  97.4763  44.8944 0010771  61.8213 298.4108 15.19313234525541"
      },
      "geometry": {
        "type": "Point",
        "coordinates": [
          43.14046963411323,
          17.748910956062268
        ]
      }
    },
    {
      "type": "Feature",
      "properties": {
        "norad_id": 41601,
        "name": "SKYSAT-C1",
        "group": "resource",
        "lat": 31.10895357467306,
        "lon": -150.51865259210916,
        "alt_km": 467.5264319779453,
        "timestamp": "2025-12-14T07:33:19.135293+00:00",
        "meta_object_name": "SKYSAT-C1",
        "meta_object_id": "2016-040C",
        "meta_epoch": "2025-12-13T15:14:23.179200",
        "meta_mean_motion": 15.32613169,
        "meta_eccentricity": 0.00022761,
        "meta_inclination": 96.9828,
        "meta_ra_of_asc_node": 24.5981,
        "meta_arg_of_pericenter": 13.2546,
        "meta_mean_anomaly": 346.8756,
        "meta_ephemeris_type": 0,
        "meta_classification_type": "U",
        "meta_norad_cat_id": 41601,
        "meta_element_set_no": 999,
        "meta_rev_at_epoch": 52941,
        "meta_bstar": 0.00035697669,
        "meta_mean_motion_dot": 0.00011175,
        "meta_mean_motion_ddot": 0,
        "tle_line1": "1 41601U 16040C   25347.63499050  .00011175  00000+0  35698-3 0  9998",
        "tle_line2": "2 41601  96.9828  24.5981 0002276  13.2546 346.8756 15.32613169529410"
      },
      "geometry": {
        "type": "Point",
        "coordinates": [
          -150.51865259210916,
          31.10895357467306
        ]
      }
    },
    {
      "type": "Feature",
      "properties": {
        "norad_id": 41603,
        "name": "LAPAN-A3",
        "group": "resource",
        "lat": -72.30438351209261,
        "lon": 8.959066349750975,
        "alt_km": 473.59377640914136,
        "timestamp": "2025-12-14T07:33:19.135304+00:00",
        "meta_object_name": "LAPAN-A3",
        "meta_object_id": "2016-040E",
        "meta_epoch": "2025-12-13T16:11:45.730176",
        "meta_mean_motion": 15.31562287,
        "meta_eccentricity": 0.00095159,
        "meta_inclination": 97.1431,
        "meta_ra_of_asc_node": 345.1971,
        "meta_arg_of_pericenter": 330.3251,
        "meta_mean_anomaly": 29.745,
        "meta_ephemeris_type": 0,
        "meta_classification_type": "U",
        "meta_norad_cat_id": 41603,
        "meta_element_set_no": 999,
        "meta_rev_at_epoch": 52640,
        "meta_bstar": 0.00018994985,
        "meta_mean_motion_dot": 5.722e-05,
        "meta_mean_motion_ddot": 0,
        "tle_line1": "1 41603U 16040E   25347.67483484  .00005722  00000+0  18995-3 0  9990",
        "tle_line2": "2 41603  97.1431 345.1971 0009515 330.3251  29.7450 15.31562287526402"
      },
      "geometry": {
        "type": "Point",
        "coordinates": [
          8.959066349750975,
          -72.30438351209261
        ]
      }
    },
    {
      "type": "Feature",
      "properties": {
        "norad_id": 41604,
        "name": "BIROS",
        "group": "resource",
        "lat": 78.31992241071039,
        "lon": -17.074929963995526,
        "alt_km": 292.7744363023503,
        "timestamp": "2025-12-14T07:33:19.135315+00:00",
        "meta_object_name": "BIROS",
        "meta_object_id": "2016-040F",
        "meta_epoch": "2025-12-13T14:36:18.084960",
        "meta_mean_motion": 15.90136506,
        "meta_eccentricity": 0.00035025,
        "meta_inclination": 97.0682,
        "meta_ra_of_asc_node": 19.0764,
        "meta_arg_of_pericenter": 146.2595,
        "meta_mean_anomaly": 213.8902,
        "meta_ephemeris_type": 0,
        "meta_classification_type": "U",
        "meta_norad_cat_id": 41604,
        "meta_element_set_no": 999,
        "meta_rev_at_epoch": 52886,
        "meta_bstar": 0.00066760898,
        "meta_mean_motion_dot": 0.00199314,
        "meta_mean_motion_ddot": 1.6332253e-05,
        "tle_line1": "1 41604U 16040F   25347.60854265  .00199314  16332-4  66761-3 0  9998",
        "tle_line2": "2 41604  97.0682  19.0764 0003502 146.2595 213.8902 15.90136506528868"
      },
      "geometry": {
        "type": "Point",
        "coordinates": [
          -17.074929963995526,
          78.31992241071039
        ]
      }
    },
    {
      "type": "Feature",
      "properties": {
        "norad_id": 41727,
        "name": "GAOFEN-3",
        "group": "resource",
        "lat": -78.50146677999429,
        "lon": 40.492714753248855,
        "alt_km": 759.3060541979321,
        "timestamp": "2025-12-14T07:33:19.135325+00:00",
        "meta_object_name": "GAOFEN-3",
        "meta_object_id": "2016-049A",
        "meta_epoch": "2025-12-13T15:17:05.725248",
        "meta_mean_motion": 14.42213695,
        "meta_eccentricity": 0.0001401,
        "meta_inclination": 98.4044,
        "meta_ra_of_asc_node": 353.2096,
        "meta_arg_of_pericenter": 61.734,
        "meta_mean_anomaly": 298.3991,
        "meta_ephemeris_type": 0,
        "meta_classification_type": "U",
        "meta_norad_cat_id": 41727,
        "meta_element_set_no": 999,
        "meta_rev_at_epoch": 49190,
        "meta_bstar": 3.9312823e-05,
        "meta_mean_motion_dot": 8.6e-07,
        "meta_mean_motion_ddot": 0,
        "tle_line1": "1 41727U 16049A   25347.63687182  .00000086  00000+0  39313-4 0  9999",
        "tle_line2": "2 41727  98.4044 353.2096 0001401  61.7340 298.3991 14.42213695491908"
      },
      "geometry": {
        "type": "Point",
        "coordinates": [
          40.492714753248855,
          -78.50146677999429
        ]
      }
    },
    {
      "type": "Feature",
      "properties": {
        "norad_id": 41771,
        "name": "SKYSAT-C4",
        "group": "resource",
        "lat": 41.083146923288886,
        "lon": -160.4793854413595,
        "alt_km": 435.0104970154216,
        "timestamp": "2025-12-14T07:33:19.135336+00:00",
        "meta_object_name": "SKYSAT-C4",
        "meta_object_id": "2016-058B",
        "meta_epoch": "2025-12-13T15:23:07.950336",
        "meta_mean_motion": 15.42283665,
        "meta_eccentricity": 0.00016492,
        "meta_inclination": 96.9382,
        "meta_ra_of_asc_node": 12.7849,
        "meta_arg_of_pericenter": 134.7935,
        "meta_mean_anomaly": 225.3447,
        "meta_ephemeris_type": 0,
        "meta_classification_type": "U",
        "meta_norad_cat_id": 41771,
        "meta_element_set_no": 999,
        "meta_rev_at_epoch": 51681,
        "meta_bstar": 0.00037986317,
        "meta_mean_motion_dot": 0.00016279,
        "meta_mean_motion_ddot": 0,
        "tle_line1": "1 41771U 16058B   25347.64106424  .00016279  00000+0  37986-3 0  9998",
        "tle_line2": "2 41771  96.9382  12.7849 0001649 134.7935 225.3447 15.42283665516812"
      },
      "geometry": {
        "type": "Point",
        "coordinates": [
          -160.4793854413595,
          41.083146923288886
        ]
      }
    }
  ]
}